LEMUR-2-HUBBLE-4        
1 64565U 25135AP  26195.94021598  .00000933  00000+0  93600-4 0  9999
2 64565  97.7719 309.5247 0002650 162.7068 197.4243 14.93685564 58016
LEMUR-2-SEJONG-2        
1 64586U 25135BL  26195.91405037  .00002111  00000+0  18897-3 0  9997
2 64586  97.7707 310.7513 0003955 220.0704 140.0226 14.96910234 58091
LEMUR-2-HUBBLE-5        
1 64840U 25135BT  26195.88217461  .00000750  00000+0  75318-4 0  9997
2 64840  97.7740 310.1359 0004295 236.4983 123.5827 14.94213274 58047
LEMUR-2-KARENDARRELL    
1 64841U 25135BU  26195.86302757  .00004225  00000+0  33968-3 0  9994
2 64841  97.7716 312.0347 0012409 105.8170 254.4422 15.00496961 58164
LEMUR-2-LUCILLE-ROSE    
1 65403U 25135BV  26195.83647656  .00003451  00000+0  27830-3 0  9997
2 65403  97.7711 312.0433 0014882 190.0513 170.0415 15.00486338 52788
LEMUR-2-AFFIE-WAUWIE    
1 66295U 25248C   26195.38884985  .00012991  00000+0  47322-3 0  9997
2 66295  45.3893 327.4899 0008759 246.6108 113.3860 15.28229453 38756
OTTER SDM               
1 66678U 25276N   26195.17573471  .00003505  00000+0  16568-3 0  9994
2 66678  97.4208 268.2073 0004268 258.7712 101.3043 15.20049880 34517
LEMUR-2-STAS-GORBUK     
1 66686U 25276W   26195.72367207  .00002799  00000+0  13445-3 0  9997
2 66686  97.4241 268.7981 0003581 250.0656 110.0194 15.19655944 34599
LEMUR-2-TEODOR          
1 66768U 25276DG  26195.74296979  .00003334  00000+0  15199-3 0  9991
2 66768  97.4146 269.0885 0002231  87.3764 272.7727 15.21334512 34634
LEMUR-2-LAILA           
1 66776U 25276DQ  26195.91012986  .00003093  00000+0  14028-3 0  9995
2 66776  97.4170 269.3915 0002920  95.2226 264.9343 15.21561549 34665
LEMUR-2-CELIJO-SB-PK    
1 66781U 25276DW  26195.71801006  .00002704  00000+0  22038-3 0  9996
2 66781  97.5200 265.5868 0007044  65.5259 294.6700 15.00280687 26755
LEMUR-2-FINNIAN         
1 66782U 25276DX  26195.42167484  .00001590  00000+0  13038-3 0  9992
2 66782  97.5382 265.5655 0008441 359.1143   1.0065 15.00610397 24080
LEMUR-2-STARLIGHT       
1 66783U 25276DY  26195.73530888  .00003763  00000+0  31171-3 0  9991
2 66783  97.5235 265.4323 0014792  48.7667 311.4829 14.99351208 34321
LEMUR-2-TARTIFLETTE     
1 66784U 25276DZ  26195.73370438  .00003482  00000+0  28903-3 0  9992
2 66784  97.5235 265.4388 0013937  57.0053 303.2508 14.99336751 34324
LEMUR-2-VUKASIN         
1 66785U 25276EA  26195.90448534  .00002577  00000+0  20886-3 0  9991
2 66785  97.5228 265.9622 0003091  55.8978 304.2540 15.00545067 34305
LEMUR-2-HOTSPUR-TOM     
1 66786U 25276EB  26195.72807596  .00002972  00000+0  24802-3 0  9990
2 66786  97.5220 265.4077 0013805  48.2453 311.9949 14.99238405 34259
